[{"OBJECT_NAME":"COSMOS 2529 (757)","OBJECT_ID":"2018-086A","EPOCH":"2026-04-23T06:40:08.654016","MEAN_MOTION":2.13101977,"ECCENTRICITY":0.00100942,"INCLINATION":64.2929,"RA_OF_ASC_NODE":194.4473,"ARG_OF_PERICENTER":254.9023,"MEAN_ANOMALY":105.0366,"EPHEMERIS_TYPE":0,"CLASSIFICATION_TYPE":"U","NORAD_CAT_ID":43687,"ELEMENT_SET_NO":999,"REV_AT_EPOCH":5811,"BSTAR":0,"MEAN_MOTION_DOT":-7.0e-8,"MEAN_MOTION_DDOT":0},{"OBJECT_NAME":"COSMOS 2534 (758)","OBJECT_ID":"2019-030A","EPOCH":"2026-04-23T04:31:19.266816","MEAN_MOTION":2.13102352,"ECCENTRICITY":0.00116936,"INCLINATION":64.3659,"RA_OF_ASC_NODE":194.4676,"ARG_OF_PERICENTER":276.695,"MEAN_ANOMALY":149.133,"EPHEMERIS_TYPE":0,"CLASSIFICATION_TYPE":"U","NORAD_CAT_ID":44299,"ELEMENT_SET_NO":999,"REV_AT_EPOCH":5375,"BSTAR":0,"MEAN_MOTION_DOT":-6.0e-8,"MEAN_MOTION_DDOT":0},{"OBJECT_NAME":"COSMOS 2544 (759)","OBJECT_ID":"2019-088A","EPOCH":"2026-04-22T15:45:15.431040","MEAN_MOTION":2.13101758,"ECCENTRICITY":0.00151322,"INCLINATION":65.5361,"RA_OF_ASC_NODE":75.5832,"ARG_OF_PERICENTER":261.9687,"MEAN_ANOMALY":97.8399,"EPHEMERIS_TYPE":0,"CLASSIFICATION_TYPE":"U","NORAD_CAT_ID":44850,"ELEMENT_SET_NO":999,"REV_AT_EPOCH":4953,"BSTAR":0,"MEAN_MOTION_DOT":2.5e-7,"MEAN_MOTION_DDOT":0},{"OBJECT_NAME":"COSMOS 2545 (760)","OBJECT_ID":"2020-018A","EPOCH":"2026-04-26T03:16:45.753888","MEAN_MOTION":2.13102374,"ECCENTRICITY":0.0007175,"INCLINATION":64.3864,"RA_OF_ASC_NODE":314.2486,"ARG_OF_PERICENTER":238.9664,"MEAN_ANOMALY":120.9888,"EPHEMERIS_TYPE":0,"CLASSIFICATION_TYPE":"U","NORAD_CAT_ID":45358,"ELEMENT_SET_NO":999,"REV_AT_EPOCH":4755,"BSTAR":0,"MEAN_MOTION_DOT":-2.7e-7,"MEAN_MOTION_DDOT":0},{"OBJECT_NAME":"COSMOS 2547 (705K)","OBJECT_ID":"2020-075A","EPOCH":"2026-04-25T20:33:14.486688","MEAN_MOTION":2.13100244,"ECCENTRICITY":0.00083527,"INCLINATION":64.5969,"RA_OF_ASC_NODE":194.2211,"ARG_OF_PERICENTER":236.9134,"MEAN_ANOMALY":123.0532,"EPHEMERIS_TYPE":0,"CLASSIFICATION_TYPE":"U","NORAD_CAT_ID":46805,"ELEMENT_SET_NO":999,"REV_AT_EPOCH":4279,"BSTAR":0,"MEAN_MOTION_DOT":-1.5e-7,"MEAN_MOTION_DDOT":0},{"OBJECT_NAME":"COSMOS 2557 (706K)","OBJECT_ID":"2022-075A","EPOCH":"2026-04-25T01:58:56.761824","MEAN_MOTION":2.1310182,"ECCENTRICITY":0.001022,"INCLINATION":64.3294,"RA_OF_ASC_NODE":316.3562,"ARG_OF_PERICENTER":281.4601,"MEAN_ANOMALY":78.4529,"EPHEMERIS_TYPE":0,"CLASSIFICATION_TYPE":"U","NORAD_CAT_ID":52984,"ELEMENT_SET_NO":999,"REV_AT_EPOCH":2958,"BSTAR":0,"MEAN_MOTION_DOT":-2.7e-7,"MEAN_MOTION_DDOT":0},{"OBJECT_NAME":"COSMOS 2559 (707K)","OBJECT_ID":"2022-130A","EPOCH":"2026-04-24T21:39:01.473696","MEAN_MOTION":2.13101428,"ECCENTRICITY":0.00113317,"INCLINATION":64.3024,"RA_OF_ASC_NODE":316.4476,"ARG_OF_PERICENTER":176.1695,"MEAN_ANOMALY":183.8669,"EPHEMERIS_TYPE":0,"CLASSIFICATION_TYPE":"U","NORAD_CAT_ID":54031,"ELEMENT_SET_NO":999,"REV_AT_EPOCH":2755,"BSTAR":0,"MEAN_MOTION_DOT":-2.7e-7,"MEAN_MOTION_DDOT":0},{"OBJECT_NAME":"COSMOS 2564 (761)","OBJECT_ID":"2022-161A","EPOCH":"2026-04-25T05:09:15.538752","MEAN_MOTION":2.1310193,"ECCENTRICITY":0.0011,"INCLINATION":64.739,"RA_OF_ASC_NODE":194.4694,"ARG_OF_PERICENTER":219.468,"MEAN_ANOMALY":140.4982,"EPHEMERIS_TYPE":0,"CLASSIFICATION_TYPE":"U","NORAD_CAT_ID":54377,"ELEMENT_SET_NO":999,"REV_AT_EPOCH":2650,"BSTAR":0,"MEAN_MOTION_DOT":-1.8e-7,"MEAN_MOTION_DDOT":0},{"OBJECT_NAME":"COSMOS 2569 (703K)","OBJECT_ID":"2023-114A","EPOCH":"2026-04-26T03:58:43.359168","MEAN_MOTION":2.13103766,"ECCENTRICITY":0.0012417,"INCLINATION":65.2744,"RA_OF_ASC_NODE":74.3736,"ARG_OF_PERICENTER":295.3844,"MEAN_ANOMALY":64.4658,"EPHEMERIS_TYPE":0,"CLASSIFICATION_TYPE":"U","NORAD_CAT_ID":57517,"ELEMENT_SET_NO":999,"REV_AT_EPOCH":2115,"BSTAR":0,"MEAN_MOTION_DOT":7.0e-8,"MEAN_MOTION_DDOT":0},{"OBJECT_NAME":"COSMOS 2584 (704K)","OBJECT_ID":"2025-042A","EPOCH":"2026-04-25T02:44:24.045216","MEAN_MOTION":2.13103596,"ECCENTRICITY":0.00067908,"INCLINATION":65.056,"RA_OF_ASC_NODE":74.6052,"ARG_OF_PERICENTER":237.6695,"MEAN_ANOMALY":122.2461,"EPHEMERIS_TYPE":0,"CLASSIFICATION_TYPE":"U","NORAD_CAT_ID":63130,"ELEMENT_SET_NO":999,"REV_AT_EPOCH":891,"BSTAR":0,"MEAN_MOTION_DOT":1.6e-7,"MEAN_MOTION_DDOT":0},{"OBJECT_NAME":"COSMOS 2596 (708K)","OBJECT_ID":"2025-206B","EPOCH":"2026-04-25T04:50:57.810336","MEAN_MOTION":2.13100414,"ECCENTRICITY":0.0011599,"INCLINATION":64.665,"RA_OF_ASC_NODE":316.8296,"ARG_OF_PERICENTER":316.9734,"MEAN_ANOMALY":227.3176,"EPHEMERIS_TYPE":0,"CLASSIFICATION_TYPE":"U","NORAD_CAT_ID":65590,"ELEMENT_SET_NO":999,"REV_AT_EPOCH":478,"BSTAR":0,"MEAN_MOTION_DOT":-2.7e-7,"MEAN_MOTION_DDOT":0}]
