COSMOS 2529 (757)       
1 43687U 18086A   26113.27787794 -.00000007  00000+0  00000+0 0  9991
2 43687  64.2929 194.4473 0010094 254.9023 105.0366  2.13101977 58110
COSMOS 2534 (758)       
1 44299U 19030A   26113.18841744 -.00000006  00000+0  00000+0 0  9996
2 44299  64.3659 194.4676 0011693 276.6950 149.1330  2.13102352 53755
COSMOS 2544 (759)       
1 44850U 19088A   26112.65642860  .00000025  00000+0  00000+0 0  9991
2 44850  65.5361  75.5832 0015132 261.9687  97.8399  2.13101758 49534
COSMOS 2545 (760)       
1 45358U 20018A   26116.13664067 -.00000027  00000+0  00000+0 0  9993
2 45358  64.3864 314.2486 0007175 238.9664 120.9888  2.13102374 47554
COSMOS 2547 (705K)      
1 46805U 20075A   26115.85641767 -.00000015  00000+0  00000+0 0  9991
2 46805  64.5969 194.2211 0008352 236.9134 123.0532  2.13100244 42795
COSMOS 2557 (706K)      
1 52984U 22075A   26115.08260141 -.00000027  00000+0  00000+0 0  9999
2 52984  64.3294 316.3562 0010220 281.4601  78.4529  2.13101820 29588
COSMOS 2559 (707K)      
1 54031U 22130A   26114.90210039 -.00000027  00000+0  00000+0 0  9997
2 54031  64.3024 316.4476 0011331 176.1695 183.8669  2.13101428 27551
COSMOS 2564 (761)       
1 54377U 22161A   26115.21476318 -.00000018  00000+0  00000+0 0  9993
2 54377  64.7390 194.4694 0011000 219.4680 140.4982  2.13101930 26507
COSMOS 2569 (703K)      
1 57517U 23114A   26116.16577962  .00000007  00000+0  00000+0 0  9990
2 57517  65.2744  74.3736 0012417 295.3844  64.4658  2.13103766 21156
COSMOS 2584 (704K)      
1 63130U 25042A   26115.11416719  .00000016  00000+0  00000+0 0  9996
2 63130  65.0560  74.6052 0006790 237.6695 122.2461  2.13103596  8917
COSMOS 2596 (708K)      
1 65590U 25206B   26115.20205799 -.00000027  00000+0  00000+0 0  9997
2 65590  64.6650 316.8296 0011599 316.9734 227.3176  2.13100414  4780
